[{"OBJECT_NAME":"TIANMU-1 10","OBJECT_ID":"2023-101D","EPOCH":"2026-03-09T23:06:46.939392","MEAN_MOTION":15.2921896,"ECCENTRICITY":0.00069292,"INCLINATION":97.2749,"RA_OF_ASC_NODE":122.1027,"ARG_OF_PERICENTER":133.6162,"MEAN_ANOMALY":226.5654,"EPHEMERIS_TYPE":0,"CLASSIFICATION_TYPE":"U","NORAD_CAT_ID":57402,"ELEMENT_SET_NO":999,"REV_AT_EPOCH":14647,"BSTAR":0.00032238884,"MEAN_MOTION_DOT":9.075e-5,"MEAN_MOTION_DDOT":0},{"OBJECT_NAME":"STARLINK-34351","OBJECT_ID":"2025-127T","EPOCH":"2026-03-09T07:32:12.472800","MEAN_MOTION":15.27598977,"ECCENTRICITY":1.197e-5,"INCLINATION":42.995,"RA_OF_ASC_NODE":181.5511,"ARG_OF_PERICENTER":283.2524,"MEAN_ANOMALY":76.8314,"EPHEMERIS_TYPE":0,"CLASSIFICATION_TYPE":"U","NORAD_CAT_ID":64387,"ELEMENT_SET_NO":999,"REV_AT_EPOCH":4241,"BSTAR":0.0012051213,"MEAN_MOTION_DOT":0.00033068,"MEAN_MOTION_DDOT":0}]
